FENGYUN 1C DEB          
1 36274U 99025DXB 17345.74718927  .00001008  00000-0  67202-3 0  9991
2 36274  99.1760 330.7084 0078190  87.3962  35.5507 14.01990962495410
